ICEYE-X53               
1 64584U 25135BJ  26192.95837262  .00000111  00000+0  13464-4 0  9999
2 64584  97.7364 309.6321 0001775 166.5404 193.5867 15.00880871 57790
ICEYE-X65               
1 66300U 25248H   26192.46327271  .00001837  00000+0  13375-3 0  9998
2 66300  45.4056   6.5249 0005075 178.5768 181.5129 15.07914187 39187
ICEYE-X66               
1 66301U 25248J   26192.46405949  .00001885  00000+0  13242-3 0  9994
2 66301  45.4022   5.6409 0004757 175.1099 184.9830 15.09161562 39173
ICEYE-X67               
1 66302U 25248K   26192.48870148  .00002125  00000+0  14738-3 0  9993
2 66302  45.4059   5.0878 0006335 175.2085 184.8859 15.09144459 39196
ICEYE-X58               
1 66751U 25276CP  26192.71830430  .00001473  00000+0  77252-4 0  9994
2 66751  97.4198 265.6682 0001934 232.1195 127.9863 15.17296564 34133
ICEYE-X59               
1 66752U 25276CQ  26192.74534672  .00002884  00000+0  23200-3 0  9997
2 66752  97.4383 262.9933 0000713 139.5292 220.5986 15.00733485 33956
ICEYE-X60               
1 66753U 25276CR  26191.63057498  .00002984  00000+0  18050-3 0  9999
2 66753  97.4184 263.6173 0000894 208.4786 151.6396 15.11381751 33905
ICEYE-X61               
1 66754U 25276CS  26192.93713900  .00001924  00000+0  96298-4 0  9995
2 66754  97.4196 265.9658 0001850 230.1906 129.9165 15.18597865 34175
ICEYE-X62               
1 66755U 25276CT  26192.71347562  .00000977  00000+0  63694-4 0  9990
2 66755  97.4194 264.1537 0000715 289.1467  70.9685 15.10123546 34036
ICEYE-X63               
1 67372U 26004K   26192.55389144  .00000546  00000+0  64824-4 0  9998
2 67372  97.8011 190.8132 0005577  60.6670 299.5104 14.88344814 26920
ICEYE-X64               
1 67373U 26004L   26192.87070170  .00000737  00000+0  86276-4 0  9997
2 67373  97.8025 191.0457 0007409  62.8027 297.3944 14.87982512 26969
ICEYE-X71               
1 68494U 26067CG  26192.88044984  .00001387  00000+0  14314-3 0  9991
2 68494  97.7624 150.7381 0001322 359.6032   0.5185 14.91783436 15404
ICEYE-X73               
1 68496U 26067CJ  26192.84233065  .00001581  00000+0  16009-3 0  9998
2 68496  97.7620 150.7837 0001283 152.8344 207.2942 14.92340510 15403
ICEYE-X75               
1 68497U 26067CK  26192.84642618  .00000594  00000+0  63847-4 0  9993
2 68497  97.7604 150.7565 0001124 150.4431 209.6851 14.92170117 15408
ICEYE-X74               
1 68500U 26067CN  26192.87958517  .00001333  00000+0  13778-3 0  9998
2 68500  97.7631 150.7473 0001117 357.1783   2.9430 14.91783460 15406
ICEYE-X76               
1 68502U 26067CQ  26192.87538707  .00000458  00000+0  50998-4 0  9998
2 68502  97.7639 150.7610 0000814 341.0560  19.0629 14.91746627 15400
